NORAD_CAT_ID,OBJECT_NAME,OBJECT_TYPE,EPOCH,MEAN_MOTION,ECCENTRICITY,INCLINATION,RA_OF_ASC_NODE,ARG_OF_PERICENTER,MEAN_ANOMALY,BSTAR,MEAN_MOTION_DOT,MEAN_MOTION_DDOT,TLE_LINE0,TLE_LINE1,TLE_LINE2,SEMIMAJOR_AXIS,PERIOD,APOGEE,PERIGEE,DECAYED
53289.0,STARLINK-4176,PAYLOAD,2023-10-06 03:08:33,15.08852036,0.0001173,53.2165,194.6929,94.9258,265.1868,0.00034627,5.229e-05,0.0,0 STARLINK-4176,1 53289U 22086AZ  23279.13094343  .00005229  00000-0  34627-3 0  9998,2 53289  53.2165 194.6929 0001173  94.9258 265.1868 15.08852036 67568,6917.844,95.437,540.52,538.897,0.0
53289.0,STARLINK-4176,PAYLOAD,2023-10-06 22:13:11,15.08831424,0.0001004,53.217,191.1254,66.7499,293.3599,-4.6881e-05,-1.034e-05,0.0,0 STARLINK-4176,1 53289U 22086AZ  23279.92583040 -.00001034  00000-0 -46881-4 0  9990,2 53289  53.2170 191.1254 0001004  66.7499 293.3599 15.08831424 67689,6917.907,95.438,540.466,539.077,0.0
53289.0,STARLINK-4176,PAYLOAD,2023-10-07 01:23:57,15.08839106,0.0001199,53.2166,190.5318,114.3474,245.7644,0.00014477,2.017e-05,0.0,0 STARLINK-4176,1 53289U 22086AZ  23280.05830745  .00002017  00000-0  14477-3 0  9998,2 53289  53.2166 190.5318 0001199 114.3474 245.7644 15.08839106 67548,6917.883,95.438,540.578,538.919,0.0
53289.0,STARLINK-4176,PAYLOAD,2023-10-07 10:56:16,15.08841527,9.03e-05,53.216,188.7464,99.6577,260.4517,0.00062817,9.724e-05,0.0,0 STARLINK-4176,1 53289U 22086AZ  23280.45575054  .00009724  00000-0  62817-3 0  9994,2 53289  53.2160 188.7464 0000903  99.6577 260.4517 15.08841527 67761,6917.876,95.437,540.365,539.116,0.0
53289.0,STARLINK-4176,PAYLOAD,2023-10-07 22:03:59,15.08833161,0.0001029,53.2164,186.6659,104.6495,255.4612,-1.563e-06,-3.13e-06,0.0,0 STARLINK-4176,1 53289U 22086AZ  23280.91943421 -.00000313  00000-0 -15630-5 0  9992,2 53289  53.2164 186.6659 0001029 104.6495 255.4612 15.08833161 67837,6917.901,95.438,540.478,539.054,0.0
53289.0,STARLINK-4176,PAYLOAD,2023-10-08 02:50:07,15.08846986,9.91e-05,53.2163,185.7726,118.7476,241.3615,0.00024247,3.574e-05,0.0,0 STARLINK-4176,1 53289U 22086AZ  23281.11814622  .00003574  00000-0  24247-3 0  9997,2 53289  53.2163 185.7726 0000991 118.7476 241.3615 15.08846986 67705,6917.859,95.437,540.41,539.038,0.0
53289.0,STARLINK-4176,PAYLOAD,2023-10-08 10:47:03,15.08840469,0.0001108,53.217,184.2859,92.0419,268.07,5.4831e-05,5.85e-06,0.0,0 STARLINK-4176,1 53289U 22086AZ  23281.44935048  .00000585  00000-0  54831-4 0  9991,2 53289  53.2170 184.2859 0001108  92.0419 268.0700 15.08840469 67910,6917.879,95.438,540.51,538.977,0.0
53289.0,STARLINK-4176,PAYLOAD,2023-10-09 01:05:31,15.08859909,0.0001105,53.2171,181.6111,95.9805,264.1313,0.00032192,4.842e-05,0.0,0 STARLINK-4176,1 53289U 22086AZ  23282.04550249  .00004842  00000-0  32192-3 0  9999,2 53289  53.2171 181.6111 0001105  95.9805 264.1313 15.08859909 67849,6917.82,95.436,540.449,538.92,0.0
53289.0,STARLINK-4176,PAYLOAD,2023-10-09 10:37:51,15.08838846,0.0001487,53.2173,179.8269,73.316,286.7995,2.1471e-05,5.4e-07,0.0,0 STARLINK-4176,1 53289U 22086AZ  23282.44295438  .00000054  00000-0  21471-4 0  9999,2 53289  53.2173 179.8269 0001487  73.3160 286.7995 15.08838846 68069,6917.884,95.438,540.778,538.72,0.0
53289.0,STARLINK-4176,PAYLOAD,2023-10-09 21:45:33,15.08833051,0.0001735,53.2174,177.7418,77.571,282.5476,1.8982e-05,1.4e-07,0.0,0 STARLINK-4176,1 53289U 22086AZ  23282.90663993  .00000014  00000-0  18982-4 0  9994,2 53289  53.2174 177.7418 0001735  77.5710 282.5476 15.08833051 68135,6917.902,95.438,540.967,538.566,0.0
53289.0,STARLINK-4176,PAYLOAD,2023-10-10 10:28:38,15.08843092,0.0001458,53.2175,175.3653,68.6809,291.4338,8.6583e-05,1.09e-05,0.0,0 STARLINK-4176,1 53289U 22086AZ  23283.43655553  .00001090  00000-0  86583-4 0  9993,2 53289  53.2175 175.3653 0001458  68.6809 291.4338 15.08843092 68214,6917.871,95.437,540.745,538.727,0.0
53289.0,STARLINK-4176,PAYLOAD,2023-10-10 16:50:11,15.08840706,0.0001308,53.2166,174.1752,83.4901,276.624,5.2042e-05,5.4e-06,0.0,0 STARLINK-4176,1 53289U 22086AZ  23283.70151722  .00000540  00000-0  52042-4 0  9994,2 53289  53.2166 174.1752 0001308  83.4901 276.6240 15.08840706 68095,6917.878,95.438,540.648,538.838,0.0
53289.0,STARLINK-4176,PAYLOAD,2023-10-10 21:36:20,15.08844312,0.0001346,53.2167,173.2843,80.0232,280.0912,0.00011169,1.49e-05,0.0,0 STARLINK-4176,1 53289U 22086AZ  23283.90023572  .00001490  00000-0  11169-3 0  9996,2 53289  53.2167 173.2843 0001346  80.0232 280.0912 15.08844312 68282,6917.867,95.437,540.663,538.801,0.0
53289.0,STARLINK-4176,PAYLOAD,2023-10-11 00:47:05,15.0885488,0.0001026,53.2164,172.6859,91.4398,268.6712,0.00013867,1.921e-05,0.0,0 STARLINK-4176,1 53289U 22086AZ  23284.03270833  .00001921  00000-0  13867-3 0  9991,2 53289  53.2164 172.6859 0001026  91.4398 268.6712 15.08854880 68149,6917.835,95.437,540.41,538.99,0.0
53289.0,STARLINK-4176,PAYLOAD,2023-10-11 10:19:25,15.08841558,0.0001093,53.2167,170.9037,93.257,266.8547,-8.502e-06,-4.23e-06,0.0,0 STARLINK-4176,1 53289U 22086AZ  23284.43015493 -.00000423  00000-0 -85020-5 0  9994,2 53289  53.2167 170.9037 0001093  93.2570 266.8547 15.08841558 68208,6917.876,95.437,540.497,538.985,0.0
53289.0,STARLINK-4176,PAYLOAD,2023-10-12 02:13:16,15.08844001,0.0001367,53.2165,167.929,95.8276,264.2872,0.00016257,2.301e-05,0.0,0 STARLINK-4176,1 53289U 22086AZ  23285.09255706  .00002301  00000-0  16257-3 0  9999,2 53289  53.2165 167.9290 0001367  95.8276 264.2872 15.08844001 68465,6917.868,95.437,540.679,538.787,0.0
53289.0,STARLINK-4176,PAYLOAD,2023-10-12 19:42:31,15.08843089,0.0001434,53.2163,164.6575,95.7271,264.3884,0.00012263,1.664e-05,0.0,0 STARLINK-4176,1 53289U 22086AZ  23285.82119814  .00001664  00000-0  12263-3 0  9993,2 53289  53.2163 164.6575 0001434  95.7271 264.3884 15.08843089 68416,6917.871,95.437,540.728,538.744,0.0
53289.0,STARLINK-4176,PAYLOAD,2023-10-12 22:53:17,15.08848677,0.0001234,53.217,164.0613,95.2087,264.9046,7.932e-05,9.75e-06,0.0,0 STARLINK-4176,1 53289U 22086AZ  23285.95367378  .00000975  00000-0  79320-4 0  9999,2 53289  53.2170 164.0613 0001234  95.2087 264.9046 15.08848677 68592,6917.854,95.437,540.573,538.865,0.0
53289.0,STARLINK-4176,PAYLOAD,2023-10-13 08:25:36,15.08845739,0.0001406,53.2166,162.2754,69.5903,290.524,1.2079e-05,-9.6e-07,0.0,0 STARLINK-4176,1 53289U 22086AZ  23286.35111348 -.00000096  00000-0  12079-4 0  9991,2 53289  53.2166 162.2754 0001406  69.5903 290.5240 15.08845739 68659,6917.863,95.437,540.7,538.755,0.0
53289.0,STARLINK-4176,PAYLOAD,2023-10-13 21:08:41,15.08841122,0.0001452,53.2165,159.8968,98.5432,261.5725,9.2916e-05,1.191e-05,0.0,0 STARLINK-4176,1 53289U 22086AZ  23286.88103663  .00001191  00000-0  92916-4 0  9994,2 53289  53.2165 159.8968 0001452  98.5432 261.5725 15.08841122 68576,6917.877,95.437,540.746,538.737,0.0
53289.0,STARLINK-4176,PAYLOAD,2023-10-13 22:44:04,15.0885059,0.0001387,53.217,159.6076,103.5755,256.5392,0.00014064,1.952e-05,0.0,0 STARLINK-4176,1 53289U 22086AZ  23286.94727214  .00001952  00000-0  14064-3 0  9997,2 53289  53.2170 159.6076 0001387 103.5755 256.5392 15.08850590 68586,6917.848,95.437,540.673,538.754,0.0
53289.0,STARLINK-4176,PAYLOAD,2023-10-14 08:16:24,15.0882193,0.000189,53.2171,157.8161,81.6625,278.4581,-0.00023393,-4.007e-05,0.0,0 STARLINK-4176,1 53289U 22086AZ  23287.34472591 -.00004007  00000-0 -23393-3 0  9998,2 53289  53.2171 157.8161 0001890  81.6625 278.4581 15.08821930 68649,6917.936,95.439,541.108,538.493,0.0
53289.0,STARLINK-4176,PAYLOAD,2023-10-14 19:24:05,15.08833317,0.0001318,53.2173,155.7373,95.9699,264.1443,-0.00010036,-1.884e-05,0.0,0 STARLINK-4176,1 53289U 22086AZ  23287.80840066 -.00001884  00000-0 -10036-3 0  9995,2 53289  53.2173 155.7373 0001318  95.9699 264.1443 15.08833317 68716,6917.901,95.438,540.678,538.854,0.0
53289.0,STARLINK-4176,PAYLOAD,2023-10-14 20:59:28,15.08832003,0.0001433,53.2176,155.4426,83.3268,276.7887,-0.00013057,-2.365e-05,0.0,0 STARLINK-4176,1 53289U 22086AZ  23287.87464068 -.00002365  00000-0 -13057-3 0  9997,2 53289  53.2176 155.4426 0001433  83.3268 276.7887 15.08832003 68886,6917.905,95.438,540.761,538.778,0.0
53289.0,STARLINK-4176,PAYLOAD,2023-10-15 08:07:10,15.08840436,0.0001451,53.2175,153.3589,77.5437,282.5718,5.9394e-05,6.57e-06,0.0,0 STARLINK-4176,1 53289U 22086AZ  23288.33831853  .00000657  00000-0  59394-4 0  9994,2 53289  53.2175 153.3589 0001451  77.5437 282.5718 15.08840436 68950,6917.879,95.438,540.748,538.74,0.0
53289.0,STARLINK-4176,PAYLOAD,2023-10-15 20:50:16,15.08838064,0.0001455,53.2164,150.9807,77.8882,282.2273,0.0001598,2.256e-05,0.0,0 STARLINK-4176,1 53289U 22086AZ  23288.86824238  .00002256  00000-0  15980-3 0  9990,2 53289  53.2164 150.9807 0001455  77.8882 282.2273 15.08838064 69032,6917.886,95.438,540.758,538.745,0.0
53289.0,STARLINK-4176,PAYLOAD,2023-10-16 07:57:58,15.08844791,0.0001351,53.2153,148.8997,84.0757,276.0389,0.00047858,7.338e-05,0.0,0 STARLINK-4176,1 53289U 22086AZ  23289.33192276  .00007338  00000-0  47858-3 0  9998,2 53289  53.2153 148.8997 0001351  84.0757 276.0389 15.08844791 68944,6917.866,95.437,540.665,538.796,0.0
53289.0,STARLINK-4176,PAYLOAD,2023-10-16 14:19:30,15.08845312,0.0001418,53.2154,147.7114,84.2538,275.8616,0.00039078,5.938e-05,0.0,0 STARLINK-4176,1 53289U 22086AZ  23289.59688270  .00005938  00000-0  39078-3 0  9999,2 53289  53.2154 147.7114 0001418  84.2538 275.8616 15.08845312 69140,6917.864,95.437,540.71,538.748,0.0
53289.0,STARLINK-4176,PAYLOAD,2023-10-17 20:31:50,15.08846397,0.0001679,53.2133,142.059,82.5911,277.5272,0.00020173,2.924e-05,0.0,0 STARLINK-4176,1 53289U 22086AZ  23290.85544058  .00002924  00000-0  20173-3 0  9993,2 53289  53.2133 142.0590 0001679  82.5911 277.5272 15.08846397 69172,6917.861,95.437,540.887,538.564,0.0
53289.0,STARLINK-4176,PAYLOAD,2023-10-18 14:01:04,15.08846348,0.000251,53.2104,138.7875,84.8473,275.2805,0.00010661,1.409e-05,0.0,0 STARLINK-4176,1 53289U 22086AZ  23291.58408116  .00001409  00000-0  10661-3 0  9996,2 53289  53.2104 138.7875 0002510  84.8473 275.2805 15.08846348 69444,6917.861,95.437,541.462,537.99,0.0
